NORAD_CAT_ID,OBJECT_NAME,OBJECT_TYPE,EPOCH,MEAN_MOTION,ECCENTRICITY,INCLINATION,RA_OF_ASC_NODE,ARG_OF_PERICENTER,MEAN_ANOMALY,BSTAR,MEAN_MOTION_DOT,MEAN_MOTION_DDOT,TLE_LINE0,TLE_LINE1,TLE_LINE2,SEMIMAJOR_AXIS,PERIOD,APOGEE,PERIGEE,DECAYED
55948.0,STARLINK-5900,PAYLOAD,2023-08-28 15:57:27,15.69927346,0.0003693,69.9954,80.2573,268.9079,91.1693,-5.3203e-06,-8.53e-06,0.0,0 STARLINK-5900,1 55948U 23037AL  23240.66489992 -.00000853  00000-0 -53203-5 0  9996,2 55948  69.9954  80.2573 0003693 268.9079  91.1693 15.69927346 25910,6737.242,91.724,361.595,356.619,0.0
55948.0,STARLINK-5900,PAYLOAD,2023-08-29 01:07:57,15.69937061,0.0003518,69.9968,79.1835,268.9224,91.1569,8.6832e-06,8.32e-06,0.0,0 STARLINK-5900,1 55948U 23037AL  23241.04719181  .00000832  00000-0  86832-5 0  9994,2 55948  69.9968  79.1835 0003518 268.9224  91.1569 15.69937061 26313,6737.214,91.723,361.449,356.709,0.0
55948.0,STARLINK-5900,PAYLOAD,2023-08-29 16:25:29,15.69918062,0.0003138,69.9975,77.3916,274.8444,85.2393,1.231e-05,1.267e-05,0.0,0 STARLINK-5900,1 55948U 23037AL  23241.68437159  .00001267  00000-0  12310-4 0  9998,2 55948  69.9975  77.3916 0003138 274.8444  85.2393 15.69918062 26419,6737.268,91.725,361.248,357.019,0.0
55948.0,STARLINK-5900,PAYLOAD,2023-08-29 22:32:33,15.69872762,0.000395,69.9959,76.6736,281.5522,78.523,-4.3374e-05,-5.415e-05,0.0,0 STARLINK-5900,1 55948U 23037AL  23241.93928069 -.00005415  00000-0 -43374-4 0  9996,2 55948  69.9959  76.6736 0003950 281.5522  78.5230 15.69872762 26452,6737.398,91.727,361.924,356.602,0.0
55948.0,STARLINK-5900,PAYLOAD,2023-08-30 03:08:07,15.69633568,0.0004127,69.9959,76.1368,255.4262,104.6476,-0.00030749,-0.00036592,0.0,0 STARLINK-5900,1 55948U 23037AL  23242.13064021 -.00036592  00000-0 -30749-3 0  9999,2 55948  69.9959  76.1368 0004127 255.4262 104.6476 15.69633568 26481,6738.082,91.741,362.728,357.167,0.0
55948.0,STARLINK-5900,PAYLOAD,2023-08-30 15:24:45,15.67618235,0.0002994,69.996,74.7117,105.7349,254.4175,-0.00262,-0.00277493,0.0,0 STARLINK-5900,1 55948U 23037AL  23242.64219115 -.00277493  00000-0 -26200-2 0  9994,2 55948  69.9960  74.7117 0002994 105.7349 254.4175 15.67618235 26563,6743.856,91.859,367.74,363.702,0.0
55948.0,STARLINK-5900,PAYLOAD,2023-08-30 21:30:27,15.68835539,0.000314,69.9969,73.9922,268.7203,91.3633,-0.0010999,-0.00124794,0.0,0 STARLINK-5900,1 55948U 23037AL  23242.89615638 -.00124794  00000-0 -10999-2 0  9994,2 55948  69.9969  73.9922 0003140 268.7203  91.3633 15.68835539 26263,6740.367,91.788,364.349,360.116,0.0
55948.0,STARLINK-5900,PAYLOAD,2023-08-31 04:00:01,15.67240345,0.0003609,69.9985,73.2315,273.6998,174.7676,-0.0097561,-0.00954533,0.0,0 STARLINK-5900,1 55948U 23037AL  23243.16668981 -.00954533  00000-0 -97561-2 0  9996,2 55948  69.9985  73.2315 0003609 273.6998 174.7676 15.67240345 26645,6744.94,91.881,369.239,364.371,0.0
55948.0,STARLINK-5900,PAYLOAD,2023-08-31 12:00:00,15.6656077,0.0003443,69.999,72.2985,266.8842,261.2152,-0.0092562,-0.00874109,0.0,0 STARLINK-5900,1 55948U 23037AL  23243.50001157 -.00874109  00000-0 -92562-2 0  9996,2 55948  69.9990  72.2985 0003443 266.8842 261.2152 15.66560770 26693,6746.891,91.921,371.079,366.433,0.0
55948.0,STARLINK-5900,PAYLOAD,2023-08-31 22:00:01,15.65738373,0.0003602,69.9992,71.1331,273.7758,82.9221,-0.0095857,-0.00888589,0.0,0 STARLINK-5900,1 55948U 23037AL  23243.91668981 -.00888589  00000-0 -95857-2 0  9992,2 55948  69.9992  71.1331 0003602 273.7758  82.9221 15.65738373  6023,6749.253,91.969,373.549,368.687,0.0
55948.0,STARLINK-5900,PAYLOAD,2023-09-01 04:00:00,15.65282045,0.0003532,69.9988,70.4348,271.1999,53.9495,-0.010533,-0.00952318,0.0,0 STARLINK-5900,1 55948U 23037AL  23244.16667824 -.00952318  00000-0 -10533-1 0  9994,2 55948  69.9988  70.4348 0003532 271.1999  53.9495 15.65282045 26808,6750.565,91.996,374.814,370.045,0.0
55948.0,STARLINK-5900,PAYLOAD,2023-09-01 14:00:01,15.64464756,0.0003449,69.9992,69.272,269.1702,242.5388,-0.010597,-0.00929518,0.0,0 STARLINK-5900,1 55948U 23037AL  23244.58334491 -.00929518  00000-0 -10597-1 0  9997,2 55948  69.9992  69.2720 0003449 269.1702 242.5388 15.64464756 26862,6752.916,92.044,377.11,372.451,0.0
55948.0,STARLINK-5900,PAYLOAD,2023-09-01 22:00:00,15.63778713,0.0003494,69.999,68.3428,274.404,313.6938,-0.010291,-0.00882757,0.0,0 STARLINK-5900,1 55948U 23037AL  23244.91667824 -.00882757  00000-0 -10291-1 0  9997,2 55948  69.9990  68.3428 0003494 274.4040 313.6938 15.63778713  5968,6754.89,92.085,379.116,374.395,0.0
55948.0,STARLINK-5900,PAYLOAD,2023-09-02 14:00:01,15.62511128,0.000364,69.9997,66.4871,270.3098,108.1676,-0.011466,-0.00931035,0.0,0 STARLINK-5900,1 55948U 23037AL  23245.58334491 -.00931035  00000-0 -11466-1 0  9991,2 55948  69.9997  66.4871 0003640 270.3098 108.1676 15.62511128  5978,6758.543,92.159,382.868,377.948,0.0
55948.0,STARLINK-5900,PAYLOAD,2023-09-02 20:00:01,15.61991999,0.0003667,69.9996,65.7921,274.3815,69.7061,-0.011254,-0.00898549,0.0,0 STARLINK-5900,1 55948U 23037AL  23245.83334491 -.00898549  00000-0 -11254-1 0  9996,2 55948  69.9996  65.7921 0003667 274.3815  69.7061 15.61991999 27066,6760.041,92.19,384.385,379.427,0.0
55948.0,STARLINK-5900,PAYLOAD,2023-09-02 22:00:00,15.61818269,0.0003607,69.9997,65.5605,277.325,175.1982,-0.01103,-0.0087671,0.0,0 STARLINK-5900,1 55948U 23037AL  23245.91667824 -.00876710  00000-0 -11030-1 0  9992,2 55948  69.9997  65.5605 0003607 277.3250 175.1982 15.61818269  6029,6760.542,92.2,384.845,379.968,0.0
55948.0,STARLINK-5900,PAYLOAD,2023-09-03 14:00:01,15.60559402,0.0003477,69.9998,63.7104,268.4575,329.7486,-0.012487,-0.00939052,0.0,0 STARLINK-5900,1 55948U 23037AL  23246.58334491 -.00939052  00000-0 -12487-1 0  9993,2 55948  69.9998  63.7104 0003477 268.4575 329.7486 15.60559402 27175,6764.177,92.275,388.394,383.69,0.0
55948.0,STARLINK-5900,PAYLOAD,2023-09-04 14:00:01,15.58604369,0.0003583,70.0003,60.9421,272.9119,177.9858,-0.01356,-0.00945667,0.0,0 STARLINK-5900,1 55948U 23037AL  23247.58334491 -.00945667  00000-0 -13560-1 0  9996,2 55948  70.0003  60.9421 0003583 272.9119 177.9858 15.58604369  6014,6769.832,92.39,394.123,389.272,0.0
55948.0,STARLINK-5900,PAYLOAD,2023-09-04 20:00:01,15.58072498,0.0003658,70.0002,60.2514,277.7239,135.3299,-0.0129,-0.00887243,0.0,0 STARLINK-5900,1 55948U 23037AL  23247.83335648 -.00887243  00000-0 -12900-1 0  9991,2 55948  70.0002  60.2514 0003658 277.7239 135.3299 15.58072498 27379,6771.373,92.422,395.715,390.761,0.0
55948.0,STARLINK-5900,PAYLOAD,2023-09-05 14:00:01,15.56645037,0.0003652,70.0003,58.1817,270.47,26.0776,-0.014544,-0.00942506,0.0,0 STARLINK-5900,1 55948U 23037AL  23248.58334491 -.00942506  00000-0 -14544-1 0  9999,2 55948  70.0003  58.1817 0003652 270.4700  26.0776 15.56645037 27491,6775.512,92.507,399.851,394.903,0.0
55948.0,STARLINK-5900,PAYLOAD,2023-09-06 14:00:01,15.54688114,0.0003481,70.0003,55.4298,274.8402,220.3174,-0.015679,-0.00944654,0.0,0 STARLINK-5900,1 55948U 23037AL  23249.58334491 -.00944654  00000-0 -15679-1 0  9996,2 55948  70.0003  55.4298 0003481 274.8402 220.3174 15.54688114 27640,6781.196,92.623,405.422,400.701,0.0
55948.0,STARLINK-5900,PAYLOAD,2023-09-06 22:00:00,15.53995789,0.0003505,69.9998,54.5141,278.9364,280.8744,-0.01488,-0.00880143,0.0,0 STARLINK-5900,1 55948U 23037AL  23249.91667824 -.00880143  00000-0 -14880-1 0  9997,2 55948  69.9998  54.5141 0003505 278.9364 280.8744 15.53995789  6027,6783.21,92.664,407.453,402.698,0.0
55948.0,STARLINK-5900,PAYLOAD,2023-09-07 14:00:01,15.52729525,0.0003604,70.0003,52.6855,273.6057,53.1218,-0.016759,-0.00940475,0.0,0 STARLINK-5900,1 55948U 23037AL  23250.58334491 -.00940475  00000-0 -16759-1 0  9995,2 55948  70.0003  52.6855 0003604 273.6057  53.1218 15.52729525 27807,6786.898,92.74,411.209,406.317,0.0
55948.0,STARLINK-5900,PAYLOAD,2023-09-07 22:00:00,15.52021418,0.0003642,69.9999,51.7725,279.5716,109.4667,-0.015257,-0.00843384,0.0,0 STARLINK-5900,1 55948U 23037AL  23250.91667824 -.00843384  00000-0 -15257-1 0  9994,2 55948  69.9999  51.7725 0003642 279.5716 109.4667 15.52021418  6023,6788.962,92.782,413.299,408.354,0.0
55948.0,STARLINK-5900,PAYLOAD,2023-09-08 04:00:00,15.51375894,0.000341,69.9998,51.0882,275.4557,69.8102,-0.0043271,-0.00247898,0.0,0 STARLINK-5900,1 55948U 23037AL  23251.16667824 -.00247898  00000-0 -43271-2 0  9998,2 55948  69.9998  51.0882 0003410 275.4557  69.8102 15.51375894 27890,6790.845,92.821,415.026,410.394,0.0
55948.0,STARLINK-5900,PAYLOAD,2023-09-08 14:00:01,15.51250784,0.000355,70.0,49.9486,274.4124,237.0589,-0.00071518,-0.00041993,0.0,0 STARLINK-5900,1 55948U 23037AL  23251.58334491 -.00041993  00000-0 -71518-3 0  9999,2 55948  70.0000  49.9486 0003550 274.4124 237.0589 15.51250784 27952,6791.21,92.828,415.486,410.664,0.0
55948.0,STARLINK-5900,PAYLOAD,2023-09-08 22:00:00,15.51222311,0.0003505,69.9997,49.0375,279.0016,293.4009,0.00012723,7.315e-05,0.0,0 STARLINK-5900,1 55948U 23037AL  23251.91667824  .00007315  00000-0  12723-3 0  9996,2 55948  69.9997  49.0375 0003505 279.0016 293.4009 15.51222311  6015,6791.293,92.83,415.539,410.778,0.0
55948.0,STARLINK-5900,PAYLOAD,2023-09-09 14:00:01,15.51093753,0.0003374,70.0,47.215,272.5578,61.6296,-0.018113,-0.00970308,0.0,0 STARLINK-5900,1 55948U 23037AL  23252.58334491 -.00970308  00000-0 -18113-1 0  9991,2 55948  70.0000  47.2150 0003374 272.5578  61.6296 15.51093753 28113,6791.668,92.838,415.825,411.242,0.0
55948.0,STARLINK-5900,PAYLOAD,2023-09-10 06:00:00,15.49721983,0.0003444,69.9997,45.3942,274.5781,179.4926,-0.016809,-0.00854765,0.0,0 STARLINK-5900,1 55948U 23037AL  23253.25001157 -.00854765  00000-0 -16809-1 0  9994,2 55948  69.9997  45.3942 0003444 274.5781 179.4926 15.49721983 28218,6795.676,92.92,419.881,415.2,0.0
55948.0,STARLINK-5900,PAYLOAD,2023-09-10 14:00:01,15.49131378,0.0003412,70.0,44.4852,275.2216,237.5851,-0.019149,-0.0095784,0.0,0 STARLINK-5900,1 55948U 23037AL  23253.58334491 -.00957840  00000-0 -19149-1 0  9998,2 55948  70.0000  44.4852 0003412 275.2216 237.5851 15.49131378  5965,6797.403,92.955,421.587,416.949,0.0
